[{"OBJECT_NAME":"STARLINK-30828","OBJECT_ID":"2023-211E","EPOCH":"2026-03-09T02:22:30.516384","MEAN_MOTION":15.27575909,"ECCENTRICITY":6.617e-5,"INCLINATION":43.0035,"RA_OF_ASC_NODE":88.6664,"ARG_OF_PERICENTER":262.8442,"MEAN_ANOMALY":97.2335,"EPHEMERIS_TYPE":0,"CLASSIFICATION_TYPE":"U","NORAD_CAT_ID":58671,"ELEMENT_SET_NO":999,"REV_AT_EPOCH":12237,"BSTAR":-1.1230175e-5,"MEAN_MOTION_DOT":-5.71e-6,"MEAN_MOTION_DDOT":0},{"OBJECT_NAME":"OBJECT P","OBJECT_ID":"2018-099P","EPOCH":"2026-03-09T16:35:55.790016","MEAN_MOTION":15.30834106,"ECCENTRICITY":0.00076856,"INCLINATION":97.4366,"RA_OF_ASC_NODE":131.9195,"ARG_OF_PERICENTER":276.7627,"MEAN_ANOMALY":83.2739,"EPHEMERIS_TYPE":0,"CLASSIFICATION_TYPE":"U","NORAD_CAT_ID":43771,"ELEMENT_SET_NO":999,"REV_AT_EPOCH":39830,"BSTAR":0.00063632878,"MEAN_MOTION_DOT":0.00018926,"MEAN_MOTION_DDOT":0}]
